FENGYUN 1C DEB          
1 32245U 99025CWT 17346.46179142  .00000377  00000-0  10307-3 0  9997
2 32245  98.5039  75.8941 0155496 266.3412  91.9987 14.46536613549538
